ONEWEB-0196             
1 48218U 21031J   25351.44778322 -.00000042  00000+0 -14809-3 0  9995
2 48218  87.8993 325.9170 0001632  80.1046 280.0268 13.14504408224359
ONEWEB-0183             
1 48219U 21031K   25351.42240533 -.00000235  00000+0 -66839-3 0  9996
2 48219  87.8983 325.9262 0001741  91.1403 268.9926 13.14504231224441
ONEWEB-0185             
1 48220U 21031L   25351.44857353  .00000039  00000+0  70594-4 0  9998
2 48220  87.9006 325.8981 0001477  94.1947 265.9352 13.14504598224377
ONEWEB-0187             
1 48221U 21031M   25351.42859781 -.00000562  00000+0 -15497-2 0  9996
2 48221  87.8988 325.9428 0001504  85.3210 274.8091 13.14503475224382
ONEWEB-0192             
1 48222U 21031N   25351.62697697  .00000260  00000+0  66742-3 0  9998
2 48222  87.8986 325.8934 0001750  80.7981 279.3346 13.14503351224329
ONEWEB-0219             
1 48223U 21031P   25351.45411809  .00000144  00000+0  35440-3 0  9991
2 48223  87.8995 325.9059 0001534  85.9889 274.1416 13.14504751224509
ONEWEB-0202             
1 48224U 21031Q   25351.43507695 -.00000473  00000+0 -13097-2 0  9999
2 48224  87.8990 325.9215 0001568  59.2023 300.9261 13.14503318224481
ONEWEB-0204             
1 48225U 21031R   25351.46918298  .00000207  00000+0  52502-3 0  9996
2 48225  87.8995 325.9052 0001833  93.6108 266.5232 13.14504905224384
